[{"OBJECT_NAME":"NUSAT-44 (MARIA MITCHELL)","OBJECT_ID":"2024-043AA","EPOCH":"2026-03-09T22:12:18.524160","MEAN_MOTION":15.29764305,"ECCENTRICITY":0.0007331,"INCLINATION":97.5299,"RA_OF_ASC_NODE":207.7691,"ARG_OF_PERICENTER":214.9017,"MEAN_ANOMALY":145.1743,"EPHEMERIS_TYPE":0,"CLASSIFICATION_TYPE":"U","NORAD_CAT_ID":59122,"ELEMENT_SET_NO":999,"REV_AT_EPOCH":11209,"BSTAR":0.00061063193,"MEAN_MOTION_DOT":0.00017562,"MEAN_MOTION_DDOT":0},{"OBJECT_NAME":"STARLINK-33923","OBJECT_ID":"2025-091M","EPOCH":"2026-03-09T23:12:43.789536","MEAN_MOTION":15.27567386,"ECCENTRICITY":9.295e-5,"INCLINATION":42.9977,"RA_OF_ASC_NODE":51.0479,"ARG_OF_PERICENTER":296.324,"MEAN_ANOMALY":63.7517,"EPHEMERIS_TYPE":0,"CLASSIFICATION_TYPE":"U","NORAD_CAT_ID":63786,"ELEMENT_SET_NO":999,"REV_AT_EPOCH":4889,"BSTAR":0.00087343623,"MEAN_MOTION_DOT":0.00023841,"MEAN_MOTION_DDOT":0}]
